[{"OBJECT_NAME":"VSP RF C1","OBJECT_ID":"2024-043AQ","EPOCH":"2026-03-09T21:56:05.358624","MEAN_MOTION":15.29409663,"ECCENTRICITY":0.00093965,"INCLINATION":97.5441,"RA_OF_ASC_NODE":205.1792,"ARG_OF_PERICENTER":219.6172,"MEAN_ANOMALY":140.4382,"EPHEMERIS_TYPE":0,"CLASSIFICATION_TYPE":"U","NORAD_CAT_ID":59136,"ELEMENT_SET_NO":999,"REV_AT_EPOCH":11190,"BSTAR":0.00026222052,"MEAN_MOTION_DOT":7.409e-5,"MEAN_MOTION_DDOT":0},{"OBJECT_NAME":"STARLINK-31394","OBJECT_ID":"2024-045H","EPOCH":"2026-03-09T10:23:14.537760","MEAN_MOTION":15.27604692,"ECCENTRICITY":0.00014562,"INCLINATION":43.0049,"RA_OF_ASC_NODE":83.4936,"ARG_OF_PERICENTER":280.5908,"MEAN_ANOMALY":79.478,"EPHEMERIS_TYPE":0,"CLASSIFICATION_TYPE":"U","NORAD_CAT_ID":59185,"ELEMENT_SET_NO":999,"REV_AT_EPOCH":11324,"BSTAR":-0.00020442855,"MEAN_MOTION_DOT":-5.888e-5,"MEAN_MOTION_DDOT":0}]
